norad_id,name,regime,epoch,line1,line2,inclination,eccentricity,mean_motion,raan,arg_pericenter,mean_anomaly
40349,O3B FM11,MEO,16276.51322712,1 40349U 14083B   16276.51322712 -.00000031 +00000-0 +00000-0 0 0001\,2 40349 000.0347 000.5784 0002819 175.9256 183.5019 05.0011592503271,0.0347,0.0002819,5.00115925,0.5784,175.9256,183.5019
40349,O3B FM11,MEO,16277.51267931,1 40349U 14083B   16277.51267931 -.00000030 +00000-0 +00000-0 0 0001\,2 40349 000.0347 000.7689 0002812 176.9520 182.2848 05.0011592903277,0.0347,0.0002812,5.00115929,0.7689,176.952,182.2848
40349,O3B FM11,MEO,16278.31224106,1 40349U 14083B   16278.31224106 -.00000029  00000-0  00000+0 0  1464\,2 40349   0.0347   0.9198 0002809 177.5126 181.5734  5.00115933 32811,0.0347,0.0002809,5.00115933,0.9198,177.5126,181.5734
40349,O3B FM11,MEO,16279.91136470,1 40349U 14083B   16279.91136470 -.00000027 +00000-0 +00000-0 0 0001\,2 40349 000.0347 001.2640 0002803 178.7620 179.9795 05.0011591503289,0.0347,0.0002803,5.00115915,1.264,178.762,179.9795
40349,O3B FM11,MEO,16280.11125534,1 40349U 14083B   16280.11125534 -.00000027 +00000-0 +00000-0 0 0001\,2 40349 000.0347 001.4031 0002802 178.7083 179.8941 05.0011590003290,0.0347,0.0002802,5.001159,1.4031,178.7083,179.8941
40349,O3B FM11,MEO,16281.51048842,1 40349U 14083B   16281.51048842 -.00000025 +00000-0 +00000-0 0 0001\,2 40349 000.0347 001.5705 0002795 180.0761 178.3585 05.0011587903296,0.0347,0.0002795,5.00115879,1.5705,180.0761,178.3585
40349,O3B FM11,MEO,16282.50994050,1 40349U 14083B   16282.50994050 -.00000024  00000-0  00000+0 0  1478\,2 40349   0.0346   1.8099 0002793 180.9448 177.2499  5.00115865 33025,0.0346,0.0002793,5.00115865,1.8099,180.9448,177.2499
40349,O3B FM11,MEO,16282.90972145,1 40349U 14083B   16282.90972145 -.00000023 +00000-0 +00000-0 0 0001\,2 40349 000.0346 001.9020 0002791 181.3159 176.7865 05.0011585003304,0.0346,0.0002791,5.0011585,1.902,181.3159,176.7865
40349,O3B FM11,MEO,16283.50939272,1 40349U 14083B   16283.50939272 -.00000022 +00000-0 +00000-0 0 0001\,2 40349 000.0346 002.0178 0002789 181.7530 176.2334 05.0011584303306,0.0346,0.0002789,5.00115843,2.0178,181.753,176.2334
40349,O3B FM11,MEO,16284.90862542,1 40349U 14083B   16284.90862542 -.00000021 +00000-0 +00000-0 0 0001\,2 40349 000.0345 002.3267 0002783 182.9178 174.7590 05.0011584003314,0.0345,0.0002783,5.0011584,2.3267,182.9178,174.759
40349,O3B FM11,MEO,16285.30840639,1 40349U 14083B   16285.30840639 -.00000021 +00000-0 +00000-0 0 0001\,2 40349 000.0345 002.3867 0002783 183.1487 174.4679 05.0011582603315,0.0345,0.0002783,5.00115826,2.3867,183.1487,174.4679
40349,O3B FM11,MEO,16286.50774920,1 40349U 14083B   16286.50774920 -.00000020 +00000-0 +00000-0 0 0001\,2 40349 000.0345 002.6098 0002778 184.1289 173.2642 05.0011578703322,0.0345,0.0002778,5.00115787,2.6098,184.1289,173.2642
40349,O3B FM11,MEO,16287.50720126,1 40349U 14083B   16287.50720126 -.00000020  00000-0  00000+0 0  1481\,2 40349   0.0344   2.7959 0002775 184.9492 172.2573  5.00115779 33270,0.0344,0.0002775,5.00115779,2.7959,184.9492,172.2573
40349,O3B FM11,MEO,16288.50665322,1 40349U 14083B   16288.50665322 -.00000020 +00000-0 +00000-0 0 0001\,2 40349 000.0344 002.9710 0002769 185.9509 171.0798 05.0011577803332,0.0344,0.0002769,5.00115778,2.971,185.9509,171.0798
40349,O3B FM11,MEO,16289.50610558,1 40349U 14083B   16289.50610558 -.00000020 +00000-0 +00000-0 0 0001\,2 40349 000.0344 003.1507 0002765 186.7439 170.1066 05.0011575003337,0.0344,0.0002765,5.0011575,3.1507,186.7439,170.1066
40349,O3B FM11,MEO,16290.90533825,1 40349U 14083B   16290.90533825 -.00000022 +00000-0 +00000-0 0 0001\,2 40349 000.0344 003.3827 0002758 187.9519 168.6656 05.0011576103344,0.0344,0.0002758,5.00115761,3.3827,187.9519,168.6656
40349,O3B FM11,MEO,16291.90479043,1 40349U 14083B   16291.90479043 -.00000023  00000-0  00000+0 0  1493\,2 40349   0.0344   3.7046 0002756 188.5333 167.7615  5.00115746 33495,0.0344,0.0002756,5.00115746,3.7046,188.5333,167.7615
40349,O3B FM11,MEO,16291.90479063,1 40349U 14083B   16291.90479063 -.00000023 +00000-0 +00000-0 0 0001\,2 40349 000.0344 003.5851 0002757 188.5669 167.8475 05.0011573303348,0.0344,0.0002757,5.00115733,3.5851,188.5669,167.8475
40349,O3B FM11,MEO,16292.90424246,1 40349U 14083B   16292.90424246 -.00000025 +00000-0 +00000-0 0 0001\,2 40349 000.0344 003.8024 0002753 189.1879 167.0084 05.0011574703353,0.0344,0.0002753,5.00115747,3.8024,189.1879,167.0084
40349,O3B FM11,MEO,16293.90369425,1 40349U 14083B   16293.90369425 -.00000027 +00000-0 +00000-0 0 0001\,2 40349 000.0343 004.0083 0002749 189.9331 166.0564 05.0011576203359,0.0343,0.0002749,5.00115762,4.0083,189.9331,166.0564
40349,O3B FM11,MEO,16294.90314621,1 40349U 14083B   16294.90314621 -.00000029 +00000-0 +00000-0 0 0001\,2 40349 000.0343 004.2040 0002745 190.6384 165.1544 05.0011576903363,0.0343,0.0002745,5.00115769,4.204,190.6384,165.1544
40349,O3B FM11,MEO,16296.30237893,1 40349U 14083B   16296.30237893 -.00000031  00000-0  00000+0 0  1508\,2 40349   0.0343   4.4496 0002738 191.8131 163.7329  5.00115786 33711,0.0343,0.0002738,5.00115786,4.4496,191.8131,163.7329
40349,O3B FM11,MEO,16296.90205031,1 40349U 14083B   16296.90205031 -.00000032 +00000-0 +00000-0 0 0001\,2 40349 000.0343 004.5717 0002737 192.2216 163.2019 05.0011578103374,0.0343,0.0002737,5.00115781,4.5717,192.2216,163.2019
40349,O3B FM11,MEO,16297.50172152,1 40349U 14083B   16297.50172152 -.00000033 +00000-0 +00000-0 0 0001\,2 40349 000.0343 004.7132 0002734 192.7259 162.5556 05.0011579103377,0.0343,0.0002734,5.00115791,4.7132,192.7259,162.5556
40349,O3B FM11,MEO,16298.90095460,1 40349U 14083B   16298.90095460 -.00000033 +00000-0 +00000-0 0 0001\,2 40349 000.0342 004.9346 0002726 193.8639 161.1957 05.0011581003383,0.0342,0.0002726,5.0011581,4.9346,193.8639,161.1957
40349,O3B FM11,MEO,16299.50062613,1 40349U 14083B   16299.50062613 -.00000033 +00000-0 +00000-0 0 0001\,2 40349 000.0342 005.1064 0002721 194.4634 160.4241 05.0011580603387,0.0342,0.0002721,5.00115806,5.1064,194.4634,160.4241
40349,O3B FM11,MEO,16300.50007799,1 40349U 14083B   16300.50007799 -.00000032  00000-0  00000+0 0  1518\,2 40349   0.0342   5.1612 0002713 195.6204 159.2119  5.00115852 33928,0.0342,0.0002713,5.00115852,5.1612,195.6204,159.2119
40349,O3B FM11,MEO,16301.89931144,1 40349U 14083B   16301.89931144 -.00000031 +00000-0 +00000-0 0 0001\,2 40349 000.0342 005.3455 0002705 196.9491 157.6988 05.0011585603398,0.0342,0.0002705,5.00115856,5.3455,196.9491,157.6988
40349,O3B FM11,MEO,16302.49898320,1 40349U 14083B   16302.49898320 -.00000030 +00000-0 +00000-0 0 0001\,2 40349 000.0341 005.4121 0002702 197.5647 157.0165 05.0011583503401,0.0341,0.0002702,5.00115835,5.4121,197.5647,157.0165
40349,O3B FM11,MEO,16303.89821632,1 40349U 14083B   16303.89821632 -.00000028 +00000-0 +00000-0 0 0001\,2 40349 000.0341 005.5650 0002697 198.6546 155.7738 05.0011586603408,0.0341,0.0002697,5.00115866,5.565,198.6546,155.7738
40349,O3B FM11,MEO,16304.49788770,1 40349U 14083B   16304.49788770 -.00000028 +00000-0 +00000-0 0 0001\,2 40349 000.0341 005.6445 0002697 198.8438 155.5052 05.0011587603412,0.0341,0.0002697,5.00115876,5.6445,198.8438,155.5052
40349,O3B FM11,MEO,16305.29744963,1 40349U 14083B   16305.29744963 -.00000027  00000-0  00000+0 0  1525\,2 40349   0.0341   5.6898 0002694 199.5620 154.7417  5.00115873 34162,0.0341,0.0002694,5.00115873,5.6898,199.562,154.7417
40349,O3B FM11,MEO,16305.69723091,1 40349U 14083B   16305.69723091 -.00000026 +00000-0 +00000-0 0 0001\,2 40349 000.0341 005.7600 0002692 200.0072 154.2262 05.0011584403417,0.0341,0.0002692,5.00115844,5.76,200.0072,154.2262
40349,O3B FM11,MEO,16306.89657352,1 40349U 14083B   16306.89657352 -.00000024 +00000-0 +00000-0 0 0001\,2 40349 000.0340 005.9280 0002691 200.8342 153.2311 05.0011585503424,0.034,0.0002691,5.00115855,5.928,200.8342,153.2311
40349,O3B FM11,MEO,16307.49624476,1 40349U 14083B   16307.49624476 -.00000024 +00000-0 +00000-0 0 0001\,2 40349 000.0340 006.0105 0002690 201.2562 152.7265 05.0011586103427,0.034,0.000269,5.00115861,6.0105,201.2562,152.7265
40349,O3B FM11,MEO,16308.09591631,1 40349U 14083B   16308.09591631 -.00000023 +00000-0 +00000-0 0 0001\,2 40349 000.0340 006.1883 0002685 201.7489 152.0558 05.0011584003430,0.034,0.0002685,5.0011584,6.1883,201.7489,152.0558
40349,O3B FM11,MEO,16309.89493003,1 40349U 14083B   16309.89493003 -.00000020 +00000-0 +00000-0 0 0001\,2 40349 000.0339 006.2869 0002684 203.0308 150.6748 05.0011584803438,0.0339,0.0002684,5.00115848,6.2869,203.0308,150.6748
40349,O3B FM11,MEO,16310.89438234,1 40349U 14083B   16310.89438234 -.00000019 +00000-0 +00000-0 0 0001\,2 40349 000.0339 006.4149 0002684 203.7214 149.8560 05.0011582603444,0.0339,0.0002684,5.00115826,6.4149,203.7214,149.856
40349,O3B FM11,MEO,16311.49405364,1 40349U 14083B   16311.49405364 -.00000018 +00000-0 +00000-0 0 0001\,2 40349 000.0339 006.4990 0002687 203.8105 149.6826 05.0011582403447,0.0339,0.0002687,5.00115824,6.499,203.8105,149.6826
40349,O3B FM11,MEO,16312.89328703,1 40349U 14083B   16312.89328703 -.00000017 +00000-0 +00000-0 0 0001\,2 40349 000.0338 006.6907 0002680 205.5151 147.7854 05.0011577303454,0.0338,0.000268,5.00115773,6.6907,205.5151,147.7854
40349,O3B FM11,MEO,16313.89273920,1 40349U 14083B   16313.89273920 -.00000016 +00000-0 +00000-0 0 0001\,2 40349 000.0338 006.7662 0002671 206.6287 146.5958 05.0011576303459,0.0338,0.0002671,5.00115763,6.7662,206.6287,146.5958
40349,O3B FM11,MEO,16314.29251995,1 40349U 14083B   16314.29251995 -.00000016  00000-0  00000+0 0  1543\,2 40349   0.0338   6.7973 0002672 207.0357 146.1575  5.00115768 34615,0.0338,0.0002672,5.00115768,6.7973,207.0357,146.1575
40349,O3B FM11,MEO,16314.89219138,1 40349U 14083B   16314.89219138 -.00000016 +00000-0 +00000-0 0 0001\,2 40349 000.0337 006.8796 0002674 207.4166 145.6941 05.0011575303464,0.0337,0.0002674,5.00115753,6.8796,207.4166,145.6941
